ORBCOMM FM115 [+]       
1 41186U 15081H   23314.99001842  .00001333  00000+0  31003-3 0  9990
2 41186  46.9987 292.4081 0001524 276.3517  83.7195 14.60088345422330
ORBCOMM FM108 [+]       
1 41187U 15081J   23314.80231301  .00001687  00000+0  41722-3 0  9997
2 41187  47.0055 341.9086 0001955 178.6635 181.4255 14.56020491421578
ORBCOMM FM117 [+]       
1 41188U 15081K   23314.76814918  .00001634  00000+0  40520-3 0  9991
2 41188  47.0014 341.0252 0002779 187.6675 172.4167 14.56033349421612
ORBCOMM FM116 [+]       
1 41189U 15081L   23315.44400257  .00001397  00000+0  35172-3 0  9998
2 41189  47.0024  67.6495 0002993 255.8991 104.1561 14.56035678420594
